{
  "type": "FeatureCollection",
  "features": [
    {
      "type": "Feature",
      "properties": {
        "norad_id": 41773,
        "name": "SKYSAT-C2",
        "group": "resource",
        "lat": -11.841922156015684,
        "lon": 21.044695473824955,
        "alt_km": 456.07969985822365,
        "timestamp": "2025-12-21T09:37:22.305818+00:00",
        "meta_object_name": "SKYSAT-C2",
        "meta_object_id": "2016-058D",
        "meta_epoch": "2025-12-21T01:51:51.666048",
        "meta_mean_motion": 15.37443909,
        "meta_eccentricity": 0.0003299,
        "meta_inclination": 97.0347,
        "meta_ra_of_asc_node": 19.2514,
        "meta_arg_of_pericenter": 10.7695,
        "meta_mean_anomaly": 349.3621,
        "meta_ephemeris_type": 0,
        "meta_classification_type": "U",
        "meta_norad_cat_id": 41773,
        "meta_element_set_no": 999,
        "meta_rev_at_epoch": 51764,
        "meta_bstar": 0.00022754,
        "meta_mean_motion_dot": 8.279e-05,
        "meta_mean_motion_ddot": 0,
        "tle_line1": "1 41773U 16058D   25355.07768132  .00008279  00000+0  22754-3 0  9994",
        "tle_line2": "2 41773  97.0347  19.2514 0003299  10.7695 349.3621 15.37443909517643"
      },
      "geometry": {
        "type": "Point",
        "coordinates": [
          21.044695473824955,
          -11.841922156015684
        ]
      }
    },
    {
      "type": "Feature",
      "properties": {
        "norad_id": 41774,
        "name": "SKYSAT-C3",
        "group": "resource",
        "lat": 39.848275416619174,
        "lon": 22.91966982450983,
        "alt_km": 428.74790112737446,
        "timestamp": "2025-12-21T09:37:22.305828+00:00",
        "meta_object_name": "SKYSAT-C3",
        "meta_object_id": "2016-058E",
        "meta_epoch": "2025-12-20T08:34:23.687904",
        "meta_mean_motion": 15.44652608,
        "meta_eccentricity": 0.0001932,
        "meta_inclination": 96.9286,
        "meta_ra_of_asc_node": 27.7493,
        "meta_arg_of_pericenter": 107.595,
        "meta_mean_anomaly": 252.5511,
        "meta_ephemeris_type": 0,
        "meta_classification_type": "U",
        "meta_norad_cat_id": 41774,
        "meta_element_set_no": 999,
        "meta_rev_at_epoch": 51843,
        "meta_bstar": 0.0002841356,
        "meta_mean_motion_dot": 0.00013163,
        "meta_mean_motion_ddot": 0,
        "tle_line1": "1 41774U 16058E   25354.35721861  .00013163  00000+0  28414-3 0  9990",
        "tle_line2": "2 41774  96.9286  27.7493 0001932 107.5950 252.5511 15.44652608518432"
      },
      "geometry": {
        "type": "Point",
        "coordinates": [
          22.91966982450983,
          39.848275416619174
        ]
      }
    },
    {
      "type": "Feature",
      "properties": {
        "norad_id": 41785,
        "name": "ALSAT 1B",
        "group": "resource",
        "lat": 16.493274712029063,
        "lon": -170.86276357642933,
        "alt_km": 654.2774327669767,
        "timestamp": "2025-12-21T09:37:22.305838+00:00",
        "meta_object_name": "ALSAT 1B",
        "meta_object_id": "2016-059C",
        "meta_epoch": "2025-12-21T05:37:19.752096",
        "meta_mean_motion": 14.7208371,
        "meta_eccentricity": 0.0010796,
        "meta_inclination": 97.7805,
        "meta_ra_of_asc_node": 6.6576,
        "meta_arg_of_pericenter": 79.6402,
        "meta_mean_anomaly": 280.6022,
        "meta_ephemeris_type": 0,
        "meta_classification_type": "U",
        "meta_norad_cat_id": 41785,
        "meta_element_set_no": 999,
        "meta_rev_at_epoch": 49439,
        "meta_bstar": 5.2501e-05,
        "meta_mean_motion_dot": 2.83e-06,
        "meta_mean_motion_ddot": 0,
        "tle_line1": "1 41785U 16059C   25355.23425639  .00000283  00000+0  52501-4 0  9999",
        "tle_line2": "2 41785  97.7805   6.6576 0010796  79.6402 280.6022 14.72083710494396"
      },
      "geometry": {
        "type": "Point",
        "coordinates": [
          -170.86276357642933,
          16.493274712029063
        ]
      }
    },
    {
      "type": "Feature",
      "properties": {
        "norad_id": 41787,
        "name": "PATHFINDER 1",
        "group": "resource",
        "lat": 81.21909790145175,
        "lon": -119.4834673155086,
        "alt_km": 645.8512445682891,
        "timestamp": "2025-12-21T09:37:22.305849+00:00",
        "meta_object_name": "PATHFINDER 1",
        "meta_object_id": "2016-059E",
        "meta_epoch": "2025-12-20T21:44:31.538112",
        "meta_mean_motion": 14.67334172,
        "meta_eccentricity": 0.0029819,
        "meta_inclination": 97.8136,
        "meta_ra_of_asc_node": 357.3006,
        "meta_arg_of_pericenter": 56.3339,
        "meta_mean_anomaly": 304.0703,
        "meta_ephemeris_type": 0,
        "meta_classification_type": "U",
        "meta_norad_cat_id": 41787,
        "meta_element_set_no": 999,
        "meta_rev_at_epoch": 49356,
        "meta_bstar": 0.00010532,
        "meta_mean_motion_dot": 5.52e-06,
        "meta_mean_motion_ddot": 0,
        "tle_line1": "1 41787U 16059E   25354.90592058  .00000552  00000+0  10532-3 0  9990",
        "tle_line2": "2 41787  97.8136 357.3006 0029819  56.3339 304.0703 14.67334172493567"
      },
      "geometry": {
        "type": "Point",
        "coordinates": [
          -119.4834673155086,
          81.21909790145175
        ]
      }
    },
    {
      "type": "Feature",
      "properties": {
        "norad_id": 41790,
        "name": "SCATSAT 1",
        "group": "resource",
        "lat": 81.68685879181724,
        "lon": -26.390941011799022,
        "alt_km": 586.4544374500829,
        "timestamp": "2025-12-21T09:37:22.305859+00:00",
        "meta_object_name": "SCATSAT 1",
        "meta_object_id": "2016-059H",
        "meta_epoch": "2025-12-21T02:43:55.699968",
        "meta_mean_motion": 14.78961089,
        "meta_eccentricity": 0.0056459,
        "meta_inclination": 98.1451,
        "meta_ra_of_asc_node": 51.8883,
        "meta_arg_of_pericenter": 101.6086,
        "meta_mean_anomaly": 259.147,
        "meta_ephemeris_type": 0,
        "meta_classification_type": "U",
        "meta_norad_cat_id": 41790,
        "meta_element_set_no": 999,
        "meta_rev_at_epoch": 7526,
        "meta_bstar": 0.00013897,
        "meta_mean_motion_dot": 9.97e-06,
        "meta_mean_motion_ddot": 0,
        "tle_line1": "1 41790U 16059H   25355.11383912  .00000997  00000+0  13897-3 0  9995",
        "tle_line2": "2 41790  98.1451  51.8883 0056459 101.6086 259.1470 14.78961089 75266"
      },
      "geometry": {
        "type": "Point",
        "coordinates": [
          -26.390941011799022,
          81.68685879181724
        ]
      }
    },
    {
      "type": "Feature",
      "properties": {
        "norad_id": 41875,
        "name": "GOKTURK 1A",
        "group": "resource",
        "lat": 29.278727215007045,
        "lon": -116.95436625945332,
        "alt_km": 682.1940229120783,
        "timestamp": "2025-12-21T09:37:22.305869+00:00",
        "meta_object_name": "GOKTURK 1A",
        "meta_object_id": "2016-073A",
        "meta_epoch": "2025-12-21T04:33:46.509696",
        "meta_mean_motion": 14.62788437,
        "meta_eccentricity": 0.0001293,
        "meta_inclination": 98.1435,
        "meta_ra_of_asc_node": 247.4426,
        "meta_arg_of_pericenter": 81.1408,
        "meta_mean_anomaly": 278.994,
        "meta_ephemeris_type": 0,
        "meta_classification_type": "U",
        "meta_norad_cat_id": 41875,
        "meta_element_set_no": 999,
        "meta_rev_at_epoch": 48280,
        "meta_bstar": 7.3137e-05,
        "meta_mean_motion_dot": 3.26e-06,
        "meta_mean_motion_ddot": 0,
        "tle_line1": "1 41875U 16073A   25355.19012164  .00000326  00000+0  73137-4 0  9991",
        "tle_line2": "2 41875  98.1435 247.4426 0001293  81.1408 278.9940 14.62788437482804"
      },
      "geometry": {
        "type": "Point",
        "coordinates": [
          -116.95436625945332,
          29.278727215007045
        ]
      }
    },
    {
      "type": "Feature",
      "properties": {
        "norad_id": 41877,
        "name": "RESOURCESAT-2A",
        "group": "resource",
        "lat": -55.759600096003574,
        "lon": -127.91038912790323,
        "alt_km": 825.9985024655562,
        "timestamp": "2025-12-21T09:37:22.305879+00:00",
        "meta_object_name": "RESOURCESAT-2A",
        "meta_object_id": "2016-074A",
        "meta_epoch": "2025-12-21T05:08:03.765408",
        "meta_mean_motion": 14.21602074,
        "meta_eccentricity": 0.0001435,
        "meta_inclination": 98.7752,
        "meta_ra_of_asc_node": 65.0208,
        "meta_arg_of_pericenter": 214.9229,
        "meta_mean_anomaly": 145.1854,
        "meta_ephemeris_type": 0,
        "meta_classification_type": "U",
        "meta_norad_cat_id": 41877,
        "meta_element_set_no": 999,
        "meta_rev_at_epoch": 46901,
        "meta_bstar": -5.576e-05,
        "meta_mean_motion_dot": -1.67e-06,
        "meta_mean_motion_ddot": 0,
        "tle_line1": "1 41877U 16074A   25355.21393247 -.00000167  00000+0 -55760-4 0  9998",
        "tle_line2": "2 41877  98.7752  65.0208 0001435 214.9229 145.1854 14.21602074469015"
      },
      "geometry": {
        "type": "Point",
        "coordinates": [
          -127.91038912790323,
          -55.759600096003574
        ]
      }
    }
  ]
}